line1,line2,validFromUtcTime
1 00000U 00000E   26001.00000000  .00000000  00000-0  27772-4 0    01,2 00000  88.8960 135.3351 0010173 270.1833  22.2150 13.55276165    01,2026-01-01T00:00:00Z
1 00000U 00000E   26002.00000000  .00000000  00000-0  27772-4 0    02,2 00000  88.8960 135.2228 0010173 267.2734 221.2077 13.55276203    02,2026-01-02T00:00:00Z
